{"type": "FeatureCollection", "features": [{"type": "Feature", "properties": {"norad_id": 24876, "name": "GPS BIIR-2  (PRN 13)", "group": "gnss", "lat": 5.59602438259343, "lon": -78.20210509625538, "alt_km": 20293.569845510076, "timestamp": "2025-12-19T10:50:01.442383+00:00", "meta": {"OBJECT_NAME": "GPS BIIR-2  (PRN 13)", "OBJECT_ID": "1997-035A", "EPOCH": "2025-12-17T17:14:35.709504", "MEAN_MOTION": 2.00563699, "ECCENTRICITY": 0.00967771, "INCLINATION": 55.8976, "RA_OF_ASC_NODE": 105.6742, "ARG_OF_PERICENTER": 56.9662, "MEAN_ANOMALY": 303.9295, "EPHEMERIS_TYPE": 0, "CLASSIFICATION_TYPE": "U", "NORAD_CAT_ID": 24876, "ELEMENT_SET_NO": 999, "REV_AT_EPOCH": 20831, "BSTAR": 0, "MEAN_MOTION_DOT": -2.3e-07, "MEAN_MOTION_DDOT": 0}, "tle": {"line1": "1 24876U 97035A   25351.71846886 -.00000023  00000+0  00000+0 0  9999", "line2": "2 24876  55.8976 105.6742 0096777  56.9662 303.9295  2.00563699208319"}}, "geometry": {"type": "Point", "coordinates": [-78.20210509625538, 5.59602438259343]}}, {"type": "Feature", "properties": {"norad_id": 26360, "name": "GPS BIIR-4  (PRN 20)", "group": "gnss", "lat": -54.64325443594787, "lon": -73.25488574718543, "alt_km": 20091.50971416069, "timestamp": "2025-12-19T10:50:01.442430+00:00", "meta": {"OBJECT_NAME": "GPS BIIR-4  (PRN 20)", "OBJECT_ID": "2000-025A", "EPOCH": "2025-12-18T04:28:10.585632", "MEAN_MOTION": 2.00567362, "ECCENTRICITY": 0.0038886, "INCLINATION": 55.0484, "RA_OF_ASC_NODE": 26.6175, "ARG_OF_PERICENTER": 242.5017, "MEAN_ANOMALY": 188.1576, "EPHEMERIS_TYPE": 0, "CLASSIFICATION_TYPE": "U", "NORAD_CAT_ID": 26360, "ELEMENT_SET_NO": 999, "REV_AT_EPOCH": 18764, "BSTAR": 0, "MEAN_MOTION_DOT": -7.5e-07, "MEAN_MOTION_DDOT": 0}, "tle": {"line1": "1 26360U 00025A   25352.18623363 -.00000075  00000+0  00000+0 0  9994", "line2": "2 26360  55.0484  26.6175 0038886 242.5017 188.1576  2.00567362187649"}}, "geometry": {"type": "Point", "coordinates": [-73.25488574718543, -54.64325443594787]}}, {"type": "Feature", "properties": {"norad_id": 26407, "name": "GPS BIIR-5  (PRN 22)", "group": "gnss", "lat": 52.46186779028417, "lon": -23.914464324681656, "alt_km": 20492.636342743626, "timestamp": "2025-12-19T10:50:01.442448+00:00", "meta": {"OBJECT_NAME": "GPS BIIR-5  (PRN 22)", "OBJECT_ID": "2000-040A", "EPOCH": "2025-12-18T18:27:27.290304", "MEAN_MOTION": 2.0056811, "ECCENTRICITY": 0.0125687, "INCLINATION": 54.8894, "RA_OF_ASC_NODE": 222.3292, "ARG_OF_PERICENTER": 301.9126, "MEAN_ANOMALY": 29.2311, "EPHEMERIS_TYPE": 0, "CLASSIFICATION_TYPE": "U", "NORAD_CAT_ID": 26407, "ELEMENT_SET_NO": 999, "REV_AT_EPOCH": 18632, "BSTAR": 0, "MEAN_MOTION_DOT": 7.5e-07, "MEAN_MOTION_DDOT": 0}, "tle": {"line1": "1 26407U 00040A   25352.76906586  .00000075  00000+0  00000+0 0  9997", "line2": "2 26407  54.8894 222.3292 0125687 301.9126  29.2311  2.00568110186323"}}, "geometry": {"type": "Point", "coordinates": [-23.914464324681656, 52.46186779028417]}}, {"type": "Feature", "properties": {"norad_id": 27663, "name": "GPS BIIR-8  (PRN 16)", "group": "gnss", "lat": -44.83880284679204, "lon": 86.42355063990193, "alt_km": 20575.848544503093, "timestamp": "2025-12-19T10:50:01.442464+00:00", "meta": {"OBJECT_NAME": "GPS BIIR-8  (PRN 16)", "OBJECT_ID": "2003-005A", "EPOCH": "2025-12-18T15:15:29.035872", "MEAN_MOTION": 2.00570647, "ECCENTRICITY": 0.0147663, "INCLINATION": 54.922, "RA_OF_ASC_NODE": 222.1438, "ARG_OF_PERICENTER": 51.8804, "MEAN_ANOMALY": 318.9428, "EPHEMERIS_TYPE": 0, "CLASSIFICATION_TYPE": "U", "NORAD_CAT_ID": 27663, "ELEMENT_SET_NO": 999, "REV_AT_EPOCH": 16769, "BSTAR": 0, "MEAN_MOTION_DOT": 7.5e-07, "MEAN_MOTION_DDOT": 0}, "tle": {"line1": "1 27663U 03005A   25352.63575273  .00000075  00000+0  00000+0 0  9997", "line2": "2 27663  54.9220 222.1438 0147663  51.8804 318.9428  2.00570647167698"}}, "geometry": {"type": "Point", "coordinates": [86.42355063990193, -44.83880284679204]}}, {"type": "Feature", "properties": {"norad_id": 28190, "name": "GPS BIIR-11 (PRN 19)", "group": "gnss", "lat": 29.761664622330624, "lon": -53.467351214721496, "alt_km": 20363.8795121738, "timestamp": "2025-12-19T10:50:01.442477+00:00", "meta": {"OBJECT_NAME": "GPS BIIR-11 (PRN 19)", "OBJECT_ID": "2004-009A", "EPOCH": "2025-12-18T01:19:43.105728", "MEAN_MOTION": 2.00560667, "ECCENTRICITY": 0.01084092, "INCLINATION": 54.9808, "RA_OF_ASC_NODE": 283.0048, "ARG_OF_PERICENTER": 167.7197, "MEAN_ANOMALY": 302.5438, "EPHEMERIS_TYPE": 0, "CLASSIFICATION_TYPE": "U", "NORAD_CAT_ID": 28190, "ELEMENT_SET_NO": 999, "REV_AT_EPOCH": 15931, "BSTAR": 0, "MEAN_MOTION_DOT": -5.1e-07, "MEAN_MOTION_DDOT": 0}, "tle": {"line1": "1 28190U 04009A   25352.05536002 -.00000051  00000+0  00000+0 0  9996", "line2": "2 28190  54.9808 283.0048 0108409 167.7197 302.5438  2.00560667159317"}}, "geometry": {"type": "Point", "coordinates": [-53.467351214721496, 29.761664622330624]}}, {"type": "Feature", "properties": {"norad_id": 28474, "name": "GPS BIIR-13 (PRN 02)", "group": "gnss", "lat": 54.08910355290747, "lon": 78.61902478896884, "alt_km": 20567.72314892173, "timestamp": "2025-12-19T10:50:01.442491+00:00", "meta": {"OBJECT_NAME": "GPS BIIR-13 (PRN 02)", "OBJECT_ID": "2004-045A", "EPOCH": "2025-12-18T14:06:14.745888", "MEAN_MOTION": 2.00569895, "ECCENTRICITY": 0.01708674, "INCLINATION": 55.2378, "RA_OF_ASC_NODE": 332.1705, "ARG_OF_PERICENTER": 309.5078, "MEAN_ANOMALY": 245.3843, "EPHEMERIS_TYPE": 0, "CLASSIFICATION_TYPE": "U", "NORAD_CAT_ID": 28474, "ELEMENT_SET_NO": 999, "REV_AT_EPOCH": 15480, "BSTAR": 0, "MEAN_MOTION_DOT": -8.5e-07, "MEAN_MOTION_DDOT": 0}, "tle": {"line1": "1 28474U 04045A   25352.58767067 -.00000085  00000+0  00000+0 0  9993", "line2": "2 28474  55.2378 332.1705 0170867 309.5078 245.3843  2.00569895154800"}}, "geometry": {"type": "Point", "coordinates": [78.61902478896884, 54.08910355290747]}}, {"type": "Feature", "properties": {"norad_id": 28874, "name": "GPS BIIRM-1 (PRN 17)", "group": "gnss", "lat": 44.58055060860663, "lon": -36.05189026707689, "alt_km": 20373.35003239158, "timestamp": "2025-12-19T10:50:01.442503+00:00", "meta": {"OBJECT_NAME": "GPS BIIRM-1 (PRN 17)", "OBJECT_ID": "2005-038A", "EPOCH": "2025-12-18T14:46:52.316256", "MEAN_MOTION": 2.00578112, "ECCENTRICITY": 0.01314599, "INCLINATION": 55.0267, "RA_OF_ASC_NODE": 280.4644, "ARG_OF_PERICENTER": 293.6802, "MEAN_ANOMALY": 240.6678, "EPHEMERIS_TYPE": 0, "CLASSIFICATION_TYPE": "U", "NORAD_CAT_ID": 28874, "ELEMENT_SET_NO": 999, "REV_AT_EPOCH": 14821, "BSTAR": 0, "MEAN_MOTION_DOT": -4.2e-07, "MEAN_MOTION_DDOT": 0}, "tle": {"line1": "1 28874U 05038A   25352.61588329 -.00000042  00000+0  00000+0 0  9999", "line2": "2 28874  55.0267 280.4644 0131459 293.6802 240.6678  2.00578112148212"}}, "geometry": {"type": "Point", "coordinates": [-36.05189026707689, 44.58055060860663]}}, {"type": "Feature", "properties": {"norad_id": 28899, "name": "INMARSAT 4-F2 (SOUTHPAN/PRN 122)", "group": "gnss", "lat": -0.7772513034443529, "lon": 34.359045455696815, "alt_km": 35791.74954930687, "timestamp": "2025-12-19T10:50:01.442517+00:00", "meta": {"OBJECT_NAME": "INMARSAT 4-F2 (SOUTHPAN/PRN 122)", "OBJECT_ID": "2005-044A", "EPOCH": "2025-12-18T22:32:16.506816", "MEAN_MOTION": 1.00272525, "ECCENTRICITY": 0.00024643, "INCLINATION": 4.8591, "RA_OF_ASC_NODE": 43.7031, "ARG_OF_PERICENTER": 227.4907, "MEAN_ANOMALY": 298.1734, "EPHEMERIS_TYPE": 0, "CLASSIFICATION_TYPE": "U", "NORAD_CAT_ID": 28899, "ELEMENT_SET_NO": 999, "REV_AT_EPOCH": 7371, "BSTAR": 0, "MEAN_MOTION_DOT": -2.4e-06, "MEAN_MOTION_DDOT": 0}, "tle": {"line1": "1 28899U 05044A   25352.93907994 -.00000240  00000+0  00000+0 0  9991", "line2": "2 28899   4.8591  43.7031 0002464 227.4907 298.1734  1.00272525 73716"}}, "geometry": {"type": "Point", "coordinates": [34.359045455696815, -0.7772513034443529]}}, {"type": "Feature", "properties": {"norad_id": 29486, "name": "GPS BIIRM-2 (PRN 31)", "group": "gnss", "lat": -32.33871997609163, "lon": 131.79431439887227, "alt_km": 20199.433529982856, "timestamp": "2025-12-19T10:50:01.442530+00:00", "meta": {"OBJECT_NAME": "GPS BIIRM-2 (PRN 31)", "OBJECT_ID": "2006-042A", "EPOCH": "2025-12-18T13:15:57.668256", "MEAN_MOTION": 2.00553965, "ECCENTRICITY": 0.01073199, "INCLINATION": 54.6948, "RA_OF_ASC_NODE": 158.5101, "ARG_OF_PERICENTER": 52.102, "MEAN_ANOMALY": 339.2959, "EPHEMERIS_TYPE": 0, "CLASSIFICATION_TYPE": "U", "NORAD_CAT_ID": 29486, "ELEMENT_SET_NO": 999, "REV_AT_EPOCH": 14077, "BSTAR": 0, "MEAN_MOTION_DOT": 7.3e-07, "MEAN_MOTION_DDOT": 0}, "tle": {"line1": "1 29486U 06042A   25352.55275079  .00000073  00000+0  00000+0 0  9996", "line2": "2 29486  54.6948 158.5101 0107319  52.1020 339.2959  2.00553965140773"}}, "geometry": {"type": "Point", "coordinates": [131.79431439887227, -32.33871997609163]}}, {"type": "Feature", "properties": {"norad_id": 29601, "name": "GPS BIIRM-3 (PRN 12)", "group": "gnss", "lat": 14.12248270269053, "lon": -128.6951296390672, "alt_km": 20098.48832023424, "timestamp": "2025-12-19T10:50:01.442543+00:00", "meta": {"OBJECT_NAME": "GPS BIIRM-3 (PRN 12)", "OBJECT_ID": "2006-052A", "EPOCH": "2025-12-17T22:21:49.359456", "MEAN_MOTION": 2.00574035, "ECCENTRICITY": 0.00878262, "INCLINATION": 54.9695, "RA_OF_ASC_NODE": 221.1921, "ARG_OF_PERICENTER": 87.4631, "MEAN_ANOMALY": 273.6373, "EPHEMERIS_TYPE": 0, "CLASSIFICATION_TYPE": "U", "NORAD_CAT_ID": 29601, "ELEMENT_SET_NO": 999, "REV_AT_EPOCH": 13977, "BSTAR": 0, "MEAN_MOTION_DOT": 7.5e-07, "MEAN_MOTION_DDOT": 0}, "tle": {"line1": "1 29601U 06052A   25351.93182129  .00000075  00000+0  00000+0 0  9992", "line2": "2 29601  54.9695 221.1921 0087826  87.4631 273.6373  2.00574035139770"}}, "geometry": {"type": "Point", "coordinates": [-128.6951296390672, 14.12248270269053]}}]}